{"type": "FeatureCollection", "features": [ {"type": "Feature", "properties": {"norad_id": 33917, "name": "COSMOS 2251 DEB", "group": "cosmos-2251-debris", "lat": 66.57407384596381, "lon": -179.82941602522212, "alt_km": 1235.237526100428, "timestamp": "2025-12-02T13:52:17.654286+00:00", "meta": {"OBJECT_NAME": "COSMOS 2251 DEB", "OBJECT_ID": "1993-036DW", "EPOCH": "2025-12-02T04:43:54.360480", "MEAN_MOTION": 13.69333549, "ECCENTRICITY": 0.03310702, "INCLINATION": 74.1062, "RA_OF_ASC_NODE": 139.6792, "ARG_OF_PERICENTER": 242.962, "MEAN_ANOMALY": 113.7353, "EPHEMERIS_TYPE": 0, "CLASSIFICATION_TYPE": "U", "NORAD_CAT_ID": 33917, "ELEMENT_SET_NO": 999, "REV_AT_EPOCH": 83589, "BSTAR": 0.0009768809, "MEAN_MOTION_DOT": 1.223e-05, "MEAN_MOTION_DDOT": 0}, "tle": {"line1": "1 33917U 93036DW  25336.19715695  .00001223  00000+0  97688-3 0  9994", "line2": "2 33917  74.1062 139.6792 0331070 242.9620 113.7353 13.69333549835893"}}, "geometry": {"type": "Point", "coordinates": [-179.82941602522212, 66.57407384596381]}}, {"type": "Feature", "properties": {"norad_id": 33920, "name": "COSMOS 2251 DEB", "group": "cosmos-2251-debris", "lat": 28.411501037612123, "lon": 128.83973336064489, "alt_km": 725.3408522069312, "timestamp": "2025-12-02T13:52:17.654296+00:00", "meta": {"OBJECT_NAME": "COSMOS 2251 DEB", "OBJECT_ID": "1993-036DZ", "EPOCH": "2025-12-02T04:56:58.154496", "MEAN_MOTION": 14.57956923, "ECCENTRICITY": 0.00385607, "INCLINATION": 74.0624, "RA_OF_ASC_NODE": 318.4379, "ARG_OF_PERICENTER": 326.615, "MEAN_ANOMALY": 33.2583, "EPHEMERIS_TYPE": 0, "CLASSIFICATION_TYPE": "U", "NORAD_CAT_ID": 33920, "ELEMENT_SET_NO": 999, "REV_AT_EPOCH": 87961, "BSTAR": 0.0024879065, "MEAN_MOTION_DOT": 0.00011527, "MEAN_MOTION_DDOT": 0}, "tle": {"line1": "1 33920U 93036DZ  25336.20622864  .00011527  00000+0  24879-2 0  9994", "line2": "2 33920  74.0624 318.4379 0038560 326.6150  33.2583 14.57956923879618"}}, "geometry": {"type": "Point", "coordinates": [128.83973336064489, 28.411501037612123]}}, {"type": "Feature", "properties": {"norad_id": 33922, "name": "COSMOS 2251 DEB", "group": "cosmos-2251-debris", "lat": -63.18975724893586, "lon": 21.292107637245618, "alt_km": 720.0177078893039, "timestamp": "2025-12-02T13:52:17.654306+00:00", "meta": {"OBJECT_NAME": "COSMOS 2251 DEB", "OBJECT_ID": "1993-036EB", "EPOCH": "2025-12-02T00:11:19.046112", "MEAN_MOTION": 14.49447106, "ECCENTRICITY": 0.00232628, "INCLINATION": 74.0458, "RA_OF_ASC_NODE": 167.8843, "ARG_OF_PERICENTER": 279.6991, "MEAN_ANOMALY": 234.8647, "EPHEMERIS_TYPE": 0, "CLASSIFICATION_TYPE": "U", "NORAD_CAT_ID": 33922, "ELEMENT_SET_NO": 999, "REV_AT_EPOCH": 88422, "BSTAR": 0.00042808968, "MEAN_MOTION_DOT": 1.617e-05, "MEAN_MOTION_DDOT": 0}, "tle": {"line1": "1 33922U 93036EB  25336.00785933  .00001617  00000+0  42809-3 0  9994", "line2": "2 33922  74.0458 167.8843 0023262 279.6991 234.8647 14.49447106884222"}}, "geometry": {"type": "Point", "coordinates": [21.292107637245618, -63.18975724893586]}}, {"type": "Feature", "properties": {"norad_id": 33924, "name": "COSMOS 2251 DEB", "group": "cosmos-2251-debris", "lat": -21.73573706585322, "lon": 113.14146760220338, "alt_km": 1223.3214294287673, "timestamp": "2025-12-02T13:52:17.654316+00:00", "meta": {"OBJECT_NAME": "COSMOS 2251 DEB", "OBJECT_ID": "1993-036ED", "EPOCH": "2025-12-02T05:43:33.375072", "MEAN_MOTION": 13.50188798, "ECCENTRICITY": 0.04040685, "INCLINATION": 73.9131, "RA_OF_ASC_NODE": 287.0808, "ARG_OF_PERICENTER": 324.3789, "MEAN_ANOMALY": 33.0945, "EPHEMERIS_TYPE": 0, "CLASSIFICATION_TYPE": "U", "NORAD_CAT_ID": 33924, "ELEMENT_SET_NO": 999, "REV_AT_EPOCH": 82597, "BSTAR": 0.0015280834, "MEAN_MOTION_DOT": 1.597e-05, "MEAN_MOTION_DDOT": 0}, "tle": {"line1": "1 33924U 93036ED  25336.23858073  .00001597  00000+0  15281-2 0  9997", "line2": "2 33924  73.9131 287.0808 0404068 324.3789  33.0945 13.50188798825973"}}, "geometry": {"type": "Point", "coordinates": [113.14146760220338, -21.73573706585322]}}, {"type": "Feature", "properties": {"norad_id": 33928, "name": "COSMOS 2251 DEB", "group": "cosmos-2251-debris", "lat": 11.143744303837682, "lon": -111.55981518337826, "alt_km": 776.0673858109803, "timestamp": "2025-12-02T13:52:17.654326+00:00", "meta": {"OBJECT_NAME": "COSMOS 2251 DEB", "OBJECT_ID": "1993-036EH", "EPOCH": "2025-12-02T06:27:46.278432", "MEAN_MOTION": 14.47372452, "ECCENTRICITY": 0.00609532, "INCLINATION": 73.9259, "RA_OF_ASC_NODE": 72.2771, "ARG_OF_PERICENTER": 8.7185, "MEAN_ANOMALY": 351.5016, "EPHEMERIS_TYPE": 0, "CLASSIFICATION_TYPE": "U", "NORAD_CAT_ID": 33928, "ELEMENT_SET_NO": 999, "REV_AT_EPOCH": 88493, "BSTAR": 0.00033167446, "MEAN_MOTION_DOT": 1.215e-05, "MEAN_MOTION_DDOT": 0}, "tle": {"line1": "1 33928U 93036EH  25336.26928563  .00001215  00000+0  33167-3 0  9997", "line2": "2 33928  73.9259  72.2771 0060953   8.7185 351.5016 14.47372452884932"}}, "geometry": {"type": "Point", "coordinates": [-111.55981518337826, 11.143744303837682]}}, {"type": "Feature", "properties": {"norad_id": 33932, "name": "COSMOS 2251 DEB", "group": "cosmos-2251-debris", "lat": -72.09882686704668, "lon": -142.92461843565988, "alt_km": 791.6722913028489, "timestamp": "2025-12-02T13:52:17.654337+00:00", "meta": {"OBJECT_NAME": "COSMOS 2251 DEB", "OBJECT_ID": "1993-036EM", "EPOCH": "2025-12-02T05:59:01.646304", "MEAN_MOTION": 14.38708331, "ECCENTRICITY": 0.00348285, "INCLINATION": 74.0336, "RA_OF_ASC_NODE": 335.2658, "ARG_OF_PERICENTER": 54.5589, "MEAN_ANOMALY": 305.8808, "EPHEMERIS_TYPE": 0, "CLASSIFICATION_TYPE": "U", "NORAD_CAT_ID": 33932, "ELEMENT_SET_NO": 999, "REV_AT_EPOCH": 87847, "BSTAR": 0.00057430719, "MEAN_MOTION_DOT": 1.749e-05, "MEAN_MOTION_DDOT": 0}, "tle": {"line1": "1 33932U 93036EM  25336.24932461  .00001749  00000+0  57431-3 0  9994", "line2": "2 33932  74.0336 335.2658 0034828  54.5589 305.8808 14.38708331878472"}}, "geometry": {"type": "Point", "coordinates": [-142.92461843565988, -72.09882686704668]}}, {"type": "Feature", "properties": {"norad_id": 33933, "name": "COSMOS 2251 DEB", "group": "cosmos-2251-debris", "lat": -54.4856103931666, "lon": 55.09679731478677, "alt_km": 829.7438990820656, "timestamp": "2025-12-02T13:52:17.654347+00:00", "meta": {"OBJECT_NAME": "COSMOS 2251 DEB", "OBJECT_ID": "1993-036EN", "EPOCH": "2025-12-02T07:26:34.157184", "MEAN_MOTION": 14.33459456, "ECCENTRICITY": 0.007088, "INCLINATION": 74.089, "RA_OF_ASC_NODE": 79.1437, "ARG_OF_PERICENTER": 90.6993, "MEAN_ANOMALY": 270.2281, "EPHEMERIS_TYPE": 0, "CLASSIFICATION_TYPE": "U", "NORAD_CAT_ID": 33933, "ELEMENT_SET_NO": 999, "REV_AT_EPOCH": 87635, "BSTAR": 0.00043976395, "MEAN_MOTION_DOT": 1.224e-05, "MEAN_MOTION_DDOT": 0}, "tle": {"line1": "1 33933U 93036EN  25336.31011756  .00001224  00000+0  43976-3 0  9995", "line2": "2 33933  74.0890  79.1437 0070880  90.6993 270.2281 14.33459456876356"}}, "geometry": {"type": "Point", "coordinates": [55.09679731478677, -54.4856103931666]}}, {"type": "Feature", "properties": {"norad_id": 33934, "name": "COSMOS 2251 DEB", "group": "cosmos-2251-debris", "lat": -23.977626920196684, "lon": -52.75576961981603, "alt_km": 692.8222772711306, "timestamp": "2025-12-02T13:52:17.654357+00:00", "meta": {"OBJECT_NAME": "COSMOS 2251 DEB", "OBJECT_ID": "1993-036EP", "EPOCH": "2025-12-02T03:03:36.037152", "MEAN_MOTION": 14.58948135, "ECCENTRICITY": 0.00160342, "INCLINATION": 74.0363, "RA_OF_ASC_NODE": 120.7877, "ARG_OF_PERICENTER": 244.2511, "MEAN_ANOMALY": 115.6999, "EPHEMERIS_TYPE": 0, "CLASSIFICATION_TYPE": "U", "NORAD_CAT_ID": 33934, "ELEMENT_SET_NO": 999, "REV_AT_EPOCH": 88584, "BSTAR": 0.001194784, "MEAN_MOTION_DOT": 5.589e-05, "MEAN_MOTION_DDOT": 0}, "tle": {"line1": "1 33934U 93036EP  25336.12750043  .00005589  00000+0  11948-2 0  9995", "line2": "2 33934  74.0363 120.7877 0016034 244.2511 115.6999 14.58948135885843"}}, "geometry": {"type": "Point", "coordinates": [-52.75576961981603, -23.977626920196684]}}, {"type": "Feature", "properties": {"norad_id": 33936, "name": "COSMOS 2251 DEB", "group": "cosmos-2251-debris", "lat": 74.00180507683567, "lon": 145.10592122927784, "alt_km": 696.4967371861867, "timestamp": "2025-12-02T13:52:17.654367+00:00", "meta": {"OBJECT_NAME": "COSMOS 2251 DEB", "OBJECT_ID": "1993-036ER", "EPOCH": "2025-12-02T06:53:01.891680", "MEAN_MOTION": 14.60150204, "ECCENTRICITY": 0.00282055, "INCLINATION": 74.0193, "RA_OF_ASC_NODE": 57.4594, "ARG_OF_PERICENTER": 214.5734, "MEAN_ANOMALY": 145.3598, "EPHEMERIS_TYPE": 0, "CLASSIFICATION_TYPE": "U", "NORAD_CAT_ID": 33936, "ELEMENT_SET_NO": 999, "REV_AT_EPOCH": 88737, "BSTAR": 0.0010353653, "MEAN_MOTION_DOT": 4.986e-05, "MEAN_MOTION_DDOT": 0}, "tle": {"line1": "1 33936U 93036ER  25336.28682745  .00004986  00000+0  10354-2 0  9997", "line2": "2 33936  74.0193  57.4594 0028205 214.5734 145.3598 14.60150204887378"}}, "geometry": {"type": "Point", "coordinates": [145.10592122927784, 74.00180507683567]}}, {"type": "Feature", "properties": {"norad_id": 33938, "name": "COSMOS 2251 DEB", "group": "cosmos-2251-debris", "lat": 68.27924694111366, "lon": -87.95653722240175, "alt_km": 736.3616447020859, "timestamp": "2025-12-02T13:52:17.654377+00:00", "meta": {"OBJECT_NAME": "COSMOS 2251 DEB", "OBJECT_ID": "1993-036ET", "EPOCH": "2025-12-02T04:17:08.373696", "MEAN_MOTION": 14.46737813, "ECCENTRICITY": 0.00168402, "INCLINATION": 74.0461, "RA_OF_ASC_NODE": 226.8923, "ARG_OF_PERICENTER": 309.9112, "MEAN_ANOMALY": 205.6335, "EPHEMERIS_TYPE": 0, "CLASSIFICATION_TYPE": "U", "NORAD_CAT_ID": 33938, "ELEMENT_SET_NO": 999, "REV_AT_EPOCH": 88247, "BSTAR": 0.00054705658, "MEAN_MOTION_DOT": 1.956e-05, "MEAN_MOTION_DDOT": 0}, "tle": {"line1": "1 33938U 93036ET  25336.17856914  .00001956  00000+0  54706-3 0  9992", "line2": "2 33938  74.0461 226.8923 0016840 309.9112 205.6335 14.46737813882473"}}, "geometry": {"type": "Point", "coordinates": [-87.95653722240175, 68.27924694111366]}}]}